STARLINK-30367          
1 57791U 23134W   26170.53952237  .00001660  00000+0  69841-4 0  9998
2 57791  43.0042 339.2739 0001768 281.6400  78.4253 15.27578290155087
STARLINK-30374          
1 57809U 23138B   26171.29471318  .00000744  00000+0  36561-4 0  9997
2 57809  43.0017  14.4566 0001316 284.4268  75.6437 15.27577223154437
STARLINK-30394          
1 57810U 23138C   26170.98191549  .00021020  00000+0  77083-3 0  9992
2 57810  43.0010  16.4043 0000990 279.6952  80.3787 15.27596200154287
STARLINK-30379          
1 57811U 23138D   26170.00498014  .00002028  00000+0  83219-4 0  9999
2 57811  43.0018  21.9690 0001572 276.9021  83.1652 15.27570103154230
STARLINK-30395          
1 57812U 23138E   26170.98961648  .00001108  00000+0  49806-4 0  9997
2 57812  43.0063  16.4543 0002094 274.1736  85.8876 15.27580185154384
STARLINK-30403          
1 57813U 23138F   26170.99222377  .00030664  00000+0  11253-2 0  9990
2 57813  43.0060  16.4800 0000496 232.2431 127.8376 15.27401626154282
STARLINK-30413          
1 57814U 23138G   26170.63328259 -.00000448  00000+0 -67579-5 0  9992
2 57814  43.0047  18.9432 0001099 266.3347  93.7379 15.27577547154325
STARLINK-30398          
1 57815U 23138H   26171.00374728  .00000565  00000+0  30070-4 0  9990
2 57815  43.0047  16.5643 0001734 268.2965  91.7688 15.27586032154282
STARLINK-30386          
1 57816U 23138J   26170.61531653 -.00000815  00000+0 -20118-4 0  9991
2 57816  43.0026  18.8102 0001265 279.0306  81.0403 15.27563568154144
STARLINK-30391          
1 57817U 23138K   26171.27301142  .00020608  00000+0  75584-3 0  9999
2 57817  43.0043  15.1421 0001415 264.5418  95.5272 15.27600738154424
STARLINK-30401          
1 57818U 23138L   26171.27557638  .00000823  00000+0  39428-4 0  9998
2 57818  43.0056  15.1538 0001406 265.1799  94.8892 15.27580976154327
STARLINK-30390          
1 57819U 23138M   26171.27942900  .00000502  00000+0  27763-4 0  9992
2 57819  43.0046  15.1900 0001410 264.4426  95.6265 15.27586005154360
STARLINK-30409          
1 57820U 23138N   26170.97548162  .00000325  00000+0  21344-4 0  9994
2 57820  43.0042  16.3337 0001646 268.0217  92.0446 15.27582420154329
STARLINK-30415          
1 57821U 23138P   26171.29099871  .00006129  00000+0  23197-3 0  9994
2 57821  43.0058  15.2760 0001458 270.2061  89.8623 15.27594593154424
STARLINK-30407          
1 57823U 23138R   26171.26175693 -.00002228  00000+0 -71459-4 0  9993
2 57823  43.0024 269.5104 0000805 245.9671 114.1096 15.27590634155650
STARLINK-30408          
1 57824U 23138S   26169.99084012  .00000335  00000+0  21714-4 0  9999
2 57824  43.0040  21.8623 0001757 266.4100  93.6550 15.27577033154222
STARLINK-30377          
1 57825U 23138T   26169.98955220 -.00001118  00000+0 -31118-4 0  9998
2 57825  43.0040  21.8528 0002002 271.3326  88.7296 15.27572483154121
STARLINK-30422          
1 57826U 23138U   26170.99347101  .00003276  00000+0  12855-3 0  9996
2 57826  43.0046  16.4796 0001114 288.7455  71.3276 15.27574360154372
STARLINK-30402          
1 57827U 23138V   26170.98319736  .00000744  00000+0  36550-4 0  9995
2 57827  43.0029  16.4097 0001289 268.1875  91.8829 15.27580660154370
STARLINK-30411          
1 57828U 23138W   26170.97933595  .00000588  00000+0  30904-4 0  9993
2 57828  43.0029  16.3579 0001441 260.7615  99.3073 15.27583235154314
STARLINK-30418          
1 57829U 23138X   26170.97419983  .00000400  00000+0  24072-4 0  9996
2 57829  43.0027  16.3406 0001633 268.3095  91.7569 15.27582184154218
STARLINK-30285          
1 57840U 23141A   26171.22546792  .00000037  00000+0  12972-4 0  9993
2 57840  53.1598 167.3539 0001264  86.1521 273.9625 15.31706322156036
STARLINK-30410          
1 57841U 23141B   26171.30002848 -.00000682  00000+0 -10203-4 0  9995
2 57841  53.1592 166.9246 0001290  87.4515 272.6634 15.31707024156044
STARLINK-30435          
1 57842U 23141C   26171.18819864  .00001156  00000+0  49004-4 0  9992
2 57842  53.1607 167.6787 0001262  75.6890 284.4251 15.31703809156025
STARLINK-30423          
1 57843U 23141D   26171.17881739  .00006783  00000+0  22980-3 0  9996
2 57843  53.1599 167.5721 0002134 124.3199 235.8004 15.31747799156028
STARLINK-30292          
1 57844U 23141E   26171.30034572  .00000110  00000+0  15830-4 0  9992
2 57844  53.1590 167.1243 0001262  86.5180 273.5965 15.30192440156048
STARLINK-30416          
1 57847U 23141H   26171.23947780  .00005203  00000+0  17933-3 0  9994
2 57847  53.1582 167.4127 0001206  73.9310 286.1825 15.31693187156038
STARLINK-30426          
1 57848U 23141J   26171.23088435  .00000376  00000+0  24828-4 0  9996
2 57848  53.1600 167.8625 0001360  86.3387 273.7769 15.30193357156021
STARLINK-30430          
1 57849U 23141K   26171.24880571 -.00000241  00000+0  40075-5 0  9994
2 57849  53.1596 167.5121 0001362  90.3266 269.7891 15.31704825156038
STARLINK-30425          
1 57850U 23141L   26171.29936468  .00000211  00000+0  19227-4 0  9998
2 57850  53.1588 167.5849 0000794  91.8142 268.2950 15.30194513156031
