OBJECT_NAME,OBJECT_ID,EPOCH,MEAN_MOTION,ECCENTRICITY,INCLINATION,RA_OF_ASC_NODE,ARG_OF_PERICENTER,MEAN_ANOMALY,EPHEMERIS_TYPE,CLASSIFICATION_TYPE,NORAD_CAT_ID,ELEMENT_SET_NO,REV_AT_EPOCH,BSTAR,MEAN_MOTION_DOT,MEAN_MOTION_DDOT
STARLINK-30367,2023-134W,2026-06-19T12:56:54.732768,15.27578290,.00017681,43.0042,339.2739,281.6400,78.4253,0,U,57791,999,15508,.69841101E-4,.166E-4,0
STARLINK-30374,2023-138B,2026-06-20T07:04:23.218752,15.27577223,.00013167,43.0017,14.4566,284.4268,75.6437,0,U,57809,999,15443,.36561237E-4,.744E-5,0
STARLINK-30394,2023-138C,2026-06-19T23:33:57.498336,15.27596200,.00009902,43.0010,16.4043,279.6952,80.3787,0,U,57810,999,15428,.77083253E-3,.2102E-3,0
STARLINK-30379,2023-138D,2026-06-19T00:07:10.284096,15.27570103,.00015725,43.0018,21.9690,276.9021,83.1652,0,U,57811,999,15423,.83219259E-4,.2028E-4,0
STARLINK-30395,2023-138E,2026-06-19T23:45:02.863872,15.27580185,.00020942,43.0063,16.4543,274.1736,85.8876,0,U,57812,999,15438,.49806448E-4,.1108E-4,0
STARLINK-30403,2023-138F,2026-06-19T23:48:48.133728,15.27401626,.00004968,43.0060,16.4800,232.2431,127.8376,0,U,57813,999,15428,.11252957E-2,.30664E-3,0
STARLINK-30413,2023-138G,2026-06-19T15:11:55.615776,15.27577547,.0001099,43.0047,18.9432,266.3347,93.7379,0,U,57814,999,15432,-.6757931E-5,-.448E-5,0
STARLINK-30398,2023-138H,2026-06-20T00:05:23.764992,15.27586032,.00017348,43.0047,16.5643,268.2965,91.7688,0,U,57815,999,15428,.30069679E-4,.565E-5,0
STARLINK-30386,2023-138J,2026-06-19T14:46:03.348192,15.27563568,.00012656,43.0026,18.8102,279.0306,81.0403,0,U,57816,999,15414,-.20118474E-4,-.815E-5,0
STARLINK-30391,2023-138K,2026-06-20T06:33:08.186688,15.27600738,.00014152,43.0043,15.1421,264.5418,95.5272,0,U,57817,999,15442,.75584391E-3,.20608E-3,0
STARLINK-30401,2023-138L,2026-06-20T06:36:49.799232,15.27580976,.00014067,43.0056,15.1538,265.1799,94.8892,0,U,57818,999,15432,.39427912E-4,.823E-5,0
STARLINK-30390,2023-138M,2026-06-20T06:42:22.665600,15.27586005,.00014109,43.0046,15.1900,264.4426,95.6265,0,U,57819,999,15436,.27763344E-4,.502E-5,0
STARLINK-30409,2023-138N,2026-06-19T23:24:41.611968,15.27582420,.00016467,43.0042,16.3337,268.0217,92.0446,0,U,57820,999,15432,.21343632E-4,.325E-5,0
STARLINK-30415,2023-138P,2026-06-20T06:59:02.288544,15.27594593,.00014582,43.0058,15.2760,270.2061,89.8623,0,U,57821,999,15442,.23197024E-3,.6129E-4,0
STARLINK-30407,2023-138R,2026-06-20T06:16:55.798752,15.27590634,.00008052,43.0024,269.5104,245.9671,114.1096,0,U,57823,999,15565,-.71459012E-4,-.2228E-4,0
STARLINK-30408,2023-138S,2026-06-18T23:46:48.586368,15.27577033,.00017579,43.0040,21.8623,266.4100,93.6550,0,U,57824,999,15422,.21713504E-4,.335E-5,0
STARLINK-30377,2023-138T,2026-06-18T23:44:57.310080,15.27572483,.00020021,43.0040,21.8528,271.3326,88.7296,0,U,57825,999,15412,-.31117925E-4,-.1118E-4,0
STARLINK-30422,2023-138U,2026-06-19T23:50:35.895264,15.27574360,.00011142,43.0046,16.4796,288.7455,71.3276,0,U,57826,999,15437,.12855255E-3,.3276E-4,0
STARLINK-30402,2023-138V,2026-06-19T23:35:48.251904,15.27580660,.00012893,43.0029,16.4097,268.1875,91.8829,0,U,57827,999,15437,.36549577E-4,.744E-5,0
STARLINK-30411,2023-138W,2026-06-19T23:30:14.626080,15.27583235,.00014412,43.0029,16.3579,260.7615,99.3073,0,U,57828,999,15431,.30904476E-4,.588E-5,0
STARLINK-30418,2023-138X,2026-06-19T23:22:50.865312,15.27582184,.00016337,43.0027,16.3406,268.3095,91.7569,0,U,57829,999,15421,.24071965E-4,.4E-5,0
STARLINK-30285,2023-141A,2026-06-20T05:24:40.428288,15.31706322,.00012641,53.1598,167.3539,86.1521,273.9625,0,U,57840,999,15603,.1297238E-4,.37E-6,0
STARLINK-30410,2023-141B,2026-06-20T07:12:02.460672,15.31707024,.00012907,53.1592,166.9246,87.4515,272.6634,0,U,57841,999,15604,-.10202721E-4,-.682E-5,0
STARLINK-30435,2023-141C,2026-06-20T04:31:00.362496,15.31703809,.00012622,53.1607,167.6787,75.6890,284.4251,0,U,57842,999,15602,.49003954E-4,.1156E-4,0
STARLINK-30423,2023-141D,2026-06-20T04:17:29.822496,15.31747799,.0002134,53.1599,167.5721,124.3199,235.8004,0,U,57843,999,15602,.22980076E-3,.6783E-4,0
STARLINK-30292,2023-141E,2026-06-20T07:12:29.870208,15.30192440,.00012629,53.1590,167.1243,86.5180,273.5965,0,U,57844,999,15604,.1583034E-4,.11E-5,0
STARLINK-30416,2023-141H,2026-06-20T05:44:50.881920,15.31693187,.00012069,53.1582,167.4127,73.9310,286.1825,0,U,57847,999,15603,.17933468E-3,.5203E-4,0
STARLINK-30426,2023-141J,2026-06-20T05:32:28.407840,15.30193357,.00013601,53.1600,167.8625,86.3387,273.7769,0,U,57848,999,15602,.24828333E-4,.376E-5,0
STARLINK-30430,2023-141K,2026-06-20T05:58:16.813344,15.31704825,.00013621,53.1596,167.5121,90.3266,269.7891,0,U,57849,999,15603,.4007534E-5,-.241E-5,0
STARLINK-30425,2023-141L,2026-06-20T07:11:05.108352,15.30194513,.0000794,53.1588,167.5849,91.8142,268.2950,0,U,57850,999,15603,.19227176E-4,.211E-5,0
